STARLINK-30494          
1 57970U 23151G   26068.36049035 -.00001272  00000+0 -35691-4 0  9993
2 57970  43.0027 192.4566 0001155 241.5536 118.5200 15.28417441137406
STARLINK-35426          
1 66441U 25259V   26067.97791761  .00029387  00000+0  10721-2 0  9993
2 66441  43.0030 278.2576 0002272 278.3776  81.6818 15.27611480 19381
