[{"OBJECT_NAME":"STARLINK-30494","OBJECT_ID":"2023-151G","EPOCH":"2026-03-09T08:39:06.366240","MEAN_MOTION":15.28417441,"ECCENTRICITY":0.00011553,"INCLINATION":43.0027,"RA_OF_ASC_NODE":192.4566,"ARG_OF_PERICENTER":241.5536,"MEAN_ANOMALY":118.52,"EPHEMERIS_TYPE":0,"CLASSIFICATION_TYPE":"U","NORAD_CAT_ID":57970,"ELEMENT_SET_NO":999,"REV_AT_EPOCH":13740,"BSTAR":-3.569111e-5,"MEAN_MOTION_DOT":-1.272e-5,"MEAN_MOTION_DDOT":0},{"OBJECT_NAME":"STARLINK-35426","OBJECT_ID":"2025-259V","EPOCH":"2026-03-08T23:28:12.081504","MEAN_MOTION":15.2761148,"ECCENTRICITY":0.00022721,"INCLINATION":43.003,"RA_OF_ASC_NODE":278.2576,"ARG_OF_PERICENTER":278.3776,"MEAN_ANOMALY":81.6818,"EPHEMERIS_TYPE":0,"CLASSIFICATION_TYPE":"U","NORAD_CAT_ID":66441,"ELEMENT_SET_NO":999,"REV_AT_EPOCH":1938,"BSTAR":0.001072099,"MEAN_MOTION_DOT":0.00029387,"MEAN_MOTION_DDOT":0}]
